OBJECT_NAME,OBJECT_ID,EPOCH,MEAN_MOTION,ECCENTRICITY,INCLINATION,RA_OF_ASC_NODE,ARG_OF_PERICENTER,MEAN_ANOMALY,EPHEMERIS_TYPE,CLASSIFICATION_TYPE,NORAD_CAT_ID,ELEMENT_SET_NO,REV_AT_EPOCH,BSTAR,MEAN_MOTION_DOT,MEAN_MOTION_DDOT
STARLINK-34509,2025-133N,2026-07-13T03:55:32.962080,15.34408951,.0001997,53.1589,253.6643,63.5967,296.5240,0,U,64484,999,6040,.4424E-3,.14604E-3,0
STARLINK-34409,2025-133P,2026-07-13T04:00:01.998720,15.34403011,.0001059,53.1584,253.4825,82.3318,16.3824,0,U,64485,999,585,.72056E-3,.24049E-3,0
STARLINK-34520,2025-133Q,2026-07-13T03:52:31.152288,15.34402278,.0001332,53.1579,253.6447,70.7981,289.3166,0,U,64486,999,6040,.39051E-3,.12841E-3,0
STARLINK-34477,2025-133R,2026-07-13T02:58:06.593088,15.34388934,.0001116,53.1590,254.1191,104.3978,255.7148,0,U,64487,999,6038,.5171E-3,.17129E-3,0
STARLINK-34217,2025-133S,2026-07-13T04:00:01.998720,15.33528513,.0001434,53.1587,254.0984,96.7515,48.4918,0,U,64488,999,585,.4434E-3,.14228E-3,0
STARLINK-34307,2025-133T,2026-07-13T00:00:02.000160,15.30181127,.0001093,53.1579,254.8514,82.1651,234.7881,0,U,64489,999,587,.15135E-2,.4471E-3,0
STARLINK-34505,2025-133U,2026-07-12T13:08:22.671168,15.30203772,.000127,53.1583,256.9179,91.5431,268.5715,0,U,64490,999,6028,.26054E-3,.7366E-4,0
STARLINK-34530,2025-133V,2026-07-13T04:03:56.561760,15.34412075,.0001601,53.1584,250.1422,109.3311,250.7865,0,U,64491,999,6042,.48561E-3,.16072E-3,0
STARLINK-34522,2025-133W,2026-07-12T10:46:08.413536,15.34404127,.00010081,53.1585,253.4649,107.0406,253.0707,0,U,64492,999,6034,.38796751E-3,.12756E-3,0
STARLINK-34462,2025-133X,2026-07-12T15:24:29.824704,15.34397795,.0000122,53.1573,252.5382,23.4472,336.6536,0,U,64493,999,6037,.23639E-3,.7619E-4,0
STARLINK-34226,2025-133Y,2026-07-12T16:28:18.918912,15.31723295,.0001419,53.1581,255.6548,70.1872,289.9282,0,U,64494,999,6016,.49484E-3,.15032E-3,0
STARLINK-34364,2025-133Z,2026-07-12T14:11:46.780224,15.34404252,.0001186,53.1580,252.2110,101.6749,258.4387,0,U,64495,999,6037,.42548E-3,.14028E-3,0
STARLINK-34363,2025-133AB,2026-07-12T10:34:01.379136,15.34401262,.00010251,53.1574,253.4079,114.4172,245.6938,0,U,64497,999,6034,.55012351E-3,.18257E-3,0
STARLINK-34427,2025-133AC,2026-07-13T02:15:41.624928,15.34387552,.000109,53.1593,253.9300,94.6948,265.4179,0,U,64498,999,6039,.35364E-3,.11586E-3,0
STARLINK-34280,2025-137A,2026-07-13T03:26:05.319168,15.34423218,.0001146,53.1606,111.7280,103.7839,256.3291,0,U,64594,999,5995,.59247E-3,.19709E-3,0
STARLINK-34517,2025-137B,2026-07-13T00:03:21.109824,15.34404889,.0001407,53.1586,112.2658,94.9461,265.1702,0,U,64595,999,5993,.33519E-3,.10967E-3,0
STARLINK-34510,2025-137C,2026-07-13T03:38:12.535008,15.34420114,.0000567,53.1596,111.7763,84.9324,275.1744,0,U,64596,999,5995,.60489E-3,.20129E-3,0
STARLINK-34486,2025-137D,2026-07-12T22:14:42.040608,15.30210085,.0001625,53.1561,113.9201,102.7803,257.3380,0,U,64597,999,5990,.44787E-3,.12933E-3,0
STARLINK-34463,2025-137E,2026-07-13T00:06:22.658688,15.34409012,.0001317,53.1578,112.2738,95.7089,264.4064,0,U,64598,999,5993,.3353E-3,.10972E-3,0
STARLINK-34294,2025-137F,2026-07-12T22:47:44.153376,15.34413152,.0001319,53.1587,112.6498,108.1467,251.9679,0,U,64599,999,5992,.8885E-3,.29775E-3,0
STARLINK-34504,2025-137G,2026-07-12T22:11:39.734016,15.30216231,.0001672,53.1562,113.9092,112.4253,247.6925,0,U,64600,999,5990,.70748E-3,.20663E-3,0
STARLINK-34508,2025-137H,2026-07-13T00:14:25.692576,15.30211885,.0002886,53.1582,113.0174,95.6859,264.4471,0,U,64601,999,5992,.43695E-3,.12609E-3,0
STARLINK-34435,2025-137J,2026-07-12T04:20:22.054848,15.34408893,.00013193,53.1588,116.3807,99.2363,260.8789,0,U,64602,999,5980,.75069349E-3,.25079E-3,0
STARLINK-34475,2025-137K,2026-07-12T04:06:42.905088,15.33558911,.00009263,53.1585,116.3214,90.2443,269.8665,0,U,64603,999,5980,.61830393E-3,.20023E-3,0
STARLINK-34488,2025-137L,2026-07-13T00:09:51.742368,15.30212368,.0001493,53.1586,112.9998,90.9103,269.2068,0,U,64604,999,5992,.56449E-3,.16403E-3,0
STARLINK-34516,2025-137M,2026-07-12T22:00:42.338880,15.31720292,.0001085,53.1580,112.4427,94.8337,265.2788,0,U,64605,999,6002,.49476E-3,.15028E-3,0
STARLINK-34073,2025-137N,2026-07-13T00:03:48.865824,15.30179759,.0001306,53.1575,112.9706,63.2056,296.9078,0,U,64606,999,5980,.17071E-3,.4697E-4,0
STARLINK-34532,2025-137P,2026-07-12T22:38:44.830752,15.34410582,.0001427,53.1575,122.5476,95.6274,264.4892,0,U,64607,999,5978,.66514E-3,.22171E-3,0
STARLINK-34519,2025-137Q,2026-07-12T04:17:20.001408,15.34408265,.00010119,53.1592,116.3685,96.7816,263.3302,0,U,64608,999,5980,.46665874E-3,.15427E-3,0
STARLINK-34513,2025-137R,2026-07-12T22:14:32.103744,15.34414186,.0000849,53.1609,113.2142,328.2508,31.8444,0,U,64609,999,6000,.47968E-3,.15872E-3,0
