STARLINK-34509          
1 64484U 25133N   26194.16357595  .00014604  00000+0  44240-3 0  9994
2 64484  53.1589 253.6643 0001997  63.5967 296.5240 15.34408951 60408
STARLINK-34409          
1 64485U 25133P   26194.16668980  .00024049  00000+0  72056-3 0  9998
2 64485  53.1584 253.4825 0001059  82.3318  16.3824 15.34403011  5858
STARLINK-34520          
1 64486U 25133Q   26194.16147167  .00012841  00000+0  39051-3 0  9993
2 64486  53.1579 253.6447 0001332  70.7981 289.3166 15.34402278 60403
STARLINK-34477          
1 64487U 25133R   26194.12368742  .00017129  00000+0  51710-3 0  9994
2 64487  53.1590 254.1191 0001116 104.3978 255.7148 15.34388934 60385
STARLINK-34217          
1 64488U 25133S   26194.16668980  .00014228  00000+0  44340-3 0  9994
2 64488  53.1587 254.0984 0001434  96.7515  48.4918 15.33528513  5856
STARLINK-34307          
1 64489U 25133T   26194.00002315  .00044710  00000+0  15135-2 0  9990
2 64489  53.1579 254.8514 0001093  82.1651 234.7881 15.30181127  5870
STARLINK-34505          
1 64490U 25133U   26193.54748462  .00007366  00000+0  26054-3 0  9999
2 64490  53.1583 256.9179 0001270  91.5431 268.5715 15.30203772 60282
STARLINK-34530          
1 64491U 25133V   26194.16940465  .00016072  00000+0  48561-3 0  9997
2 64491  53.1584 250.1422 0001601 109.3311 250.7865 15.34412075 60421
STARLINK-34522          
1 64492U 25133W   26193.44870849  .00012756  00000+0  38797-3 0  9991
2 64492  53.1585 253.4649 0001008 107.0406 253.0707 15.34404127 60342
STARLINK-34462          
1 64493U 25133X   26193.64201186  .00007619  00000+0  23639-3 0  9997
2 64493  53.1573 252.5382 0000122  23.4472 336.6536 15.34397795 60377
STARLINK-34226          
1 64494U 25133Y   26193.68633008  .00015032  00000+0  49484-3 0  9998
2 64494  53.1581 255.6548 0001419  70.1872 289.9282 15.31723295 60168
STARLINK-34364          
1 64495U 25133Z   26193.59151366  .00014028  00000+0  42548-3 0  9999
2 64495  53.1580 252.2110 0001186 101.6749 258.4387 15.34404252 60372
STARLINK-34363          
1 64497U 25133AB  26193.44029374  .00018257  00000+0  55012-3 0  9996
2 64497  53.1574 253.4079 0001025 114.4172 245.6938 15.34401262 60343
STARLINK-34427          
1 64498U 25133AC  26194.09423177  .00011586  00000+0  35364-3 0  9994
2 64498  53.1593 253.9300 0001090  94.6948 265.4179 15.34387552 60396
STARLINK-34280          
1 64594U 25137A   26194.14311712  .00019709  00000+0  59247-3 0  9993
2 64594  53.1606 111.7280 0001146 103.7839 256.3291 15.34423218 59953
STARLINK-34517          
1 64595U 25137B   26194.00232766  .00010967  00000+0  33519-3 0  9991
2 64595  53.1586 112.2658 0001407  94.9461 265.1702 15.34404889 59934
STARLINK-34510          
1 64596U 25137C   26194.15153397  .00020129  00000+0  60489-3 0  9997
2 64596  53.1596 111.7763 0000567  84.9324 275.1744 15.34420114 59958
STARLINK-34486          
1 64597U 25137D   26193.92687547  .00012933  00000+0  44787-3 0  9998
2 64597  53.1561 113.9201 0001625 102.7803 257.3380 15.30210085 59902
STARLINK-34463          
1 64598U 25137E   26194.00442892  .00010972  00000+0  33530-3 0  9996
2 64598  53.1578 112.2738 0001317  95.7089 264.4064 15.34409012 59938
STARLINK-34294          
1 64599U 25137F   26193.94981659  .00029775  00000+0  88850-3 0  9994
2 64599  53.1587 112.6498 0001319 108.1467 251.9679 15.34413152 59929
STARLINK-34504          
1 64600U 25137G   26193.92476544  .00020663  00000+0  70748-3 0  9991
2 64600  53.1562 113.9092 0001672 112.4253 247.6925 15.30216231 59901
STARLINK-34508          
1 64601U 25137H   26194.01001959  .00012609  00000+0  43695-3 0  9999
2 64601  53.1582 113.0174 0002886  95.6859 264.4471 15.30211885 59923
STARLINK-34435          
1 64602U 25137J   26193.18081082  .00025079  00000+0  75069-3 0  9997
2 64602  53.1588 116.3807 0001319  99.2363 260.8789 15.34408893 59809
STARLINK-34475          
1 64603U 25137K   26193.17132992  .00020023  00000+0  61830-3 0  9999
2 64603  53.1585 116.3214 0000926  90.2443 269.8665 15.33558911 59800
STARLINK-34488          
1 64604U 25137L   26194.00684887  .00016403  00000+0  56449-3 0  9995
2 64604  53.1586 112.9998 0001493  90.9103 269.2068 15.30212368 59927
STARLINK-34516          
1 64605U 25137M   26193.91715670  .00015028  00000+0  49476-3 0  9994
2 64605  53.1580 112.4427 0001085  94.8337 265.2788 15.31720292 60022
STARLINK-34073          
1 64606U 25137N   26194.00264891  .00004697  00000+0  17071-3 0  9996
2 64606  53.1575 112.9706 0001306  63.2056 296.9078 15.30179759 59808
STARLINK-34532          
1 64607U 25137P   26193.94357443  .00022171  00000+0  66514-3 0  9998
2 64607  53.1575 122.5476 0001427  95.6274 264.4892 15.34410582 59782
STARLINK-34519          
1 64608U 25137Q   26193.17870372  .00015427  00000+0  46666-3 0  9997
2 64608  53.1592 116.3685 0001011  96.7816 263.3302 15.34408265 59800
STARLINK-34513          
1 64609U 25137R   26193.92676046  .00015872  00000+0  47968-3 0  9993
2 64609  53.1609 113.2142 0000849 328.2508  31.8444 15.34414186 60001
